start=new Date('2021-09-05T00:00:00.000Z').valueOf();
sats=[{"SEMIMAJOR_AXIS":"6925.343","OBJECT_NAME":"STARLINK-2374","EPHEMERIS_TYPE":"0","COUNTRY_CODE":"US","MEAN_ANOMALY":"281.1610","NORAD_CAT_ID":"47913","SITE":"AFETR","INCLINATION":"53.0566","OBJECT_TYPE":"PAYLOAD","DECAY_DATE":null,"RCS_SIZE":"LARGE","CLASSIFICATION_TYPE":"U","PERIOD":"95.592","APOAPSIS":"548.750","RA_OF_ASC_NODE":"118.1361","TLE_LINE2":"2 47913  53.0566 118.1361 0002226  78.9629 281.1610 15.06401800 27727","REV_AT_EPOCH":"2772","MEAN_ELEMENT_THEORY":"SGP4","BSTAR":"0.00009227400000","MEAN_MOTION_DOT":"0.00001093","ECCENTRICITY":"0.00022260","PERIAPSIS":"545.666","LAUNCH_DATE":"2021-03-14","REF_FRAME":"TEME","CENTER_NAME":"EARTH","ARG_OF_PERICENTER":"78.9629","TIME_SYSTEM":"UTC","ELEMENT_SET_NO":"999","GP_ID":"184078270","MEAN_MOTION_DDOT":"0.0000000000000","TLE_LINE1":"1 47913U 21021BF  21247.05275094  .00001093  00000-0  92274-4 0  9999","OBJECT_ID":"2021-021BF","MEAN_MOTION":"15.06401800","EPOCH":"2021-09-04T01:15:57.681216","FILE":"3108585"},{"CLASSIFICATION_TYPE":"U","RCS_SIZE":"LARGE","DECAY_DATE":null,"APOAPSIS":"548.743","PERIOD":"95.592","INCLINATION":"53.0562","SITE":"AFETR","OBJECT_TYPE":"PAYLOAD","NORAD_CAT_ID":"47914","OBJECT_NAME":"STARLINK-2375","SEMIMAJOR_AXIS":"6925.359","EPHEMERIS_TYPE":"0","COUNTRY_CODE":"US","MEAN_ANOMALY":"284.4951","EPOCH":"2021-09-04T02:47:32.339328","MEAN_MOTION":"15.06396588","OBJECT_ID":"2021-021BG","FILE":"3108585","ELEMENT_SET_NO":"999","GP_ID":"184078522","MEAN_MOTION_DDOT":"0.0000000000000","TLE_LINE1":"1 47914U 21021BG  21247.11634652 -.00000682  00000-0 -26855-4 0  9993","REF_FRAME":"TEME","ARG_OF_PERICENTER":"75.6281","CENTER_NAME":"EARTH","TIME_SYSTEM":"UTC","MEAN_ELEMENT_THEORY":"SGP4","REV_AT_EPOCH":"2772","RA_OF_ASC_NODE":"117.8492","TLE_LINE2":"2 47914  53.0562 117.8492 0002193  75.6281 284.4951 15.06396588 27726","BSTAR":"-0.00002685500000","MEAN_MOTION_DOT":"-0.00000682","ECCENTRICITY":"0.00021930","PERIAPSIS":"545.705","LAUNCH_DATE":"2021-03-14"},{"SEMIMAJOR_AXIS":"6925.364","OBJECT_NAME":"STARLINK-2376","EPHEMERIS_TYPE":"0","COUNTRY_CODE":"US","MEAN_ANOMALY":"261.7021","NORAD_CAT_ID":"47915","SITE":"AFETR","INCLINATION":"53.0543","OBJECT_TYPE":"PAYLOAD","RCS_SIZE":"LARGE","DECAY_DATE":null,"CLASSIFICATION_TYPE":"U","PERIOD":"95.592","APOAPSIS":"548.583","TLE_LINE2":"2 47915  53.0543 113.1204 0001956  98.4190 261.7021 15.06395015 27791","RA_OF_ASC_NODE":"113.1204","REV_AT_EPOCH":"2779","MEAN_ELEMENT_THEORY":"SGP4","BSTAR":"0.00007460400000","ECCENTRICITY":"0.00019560","MEAN_MOTION_DOT":"0.00000830","LAUNCH_DATE":"2021-03-14","PERIAPSIS":"545.874","REF_FRAME":"TEME","CENTER_NAME":"EARTH","ARG_OF_PERICENTER":"98.4190","TIME_SYSTEM":"UTC","ELEMENT_SET_NO":"999","GP_ID":"184078771","MEAN_MOTION_DDOT":"0.0000000000000","TLE_LINE1":"1 47915U 21021BH  21247.04865029  .00000830  00000-0  74604-4 0  9998","OBJECT_ID":"2021-021BH","EPOCH":"2021-09-04T01:10:03.385056","MEAN_MOTION":"15.06395015","FILE":"3108585"},{"PERIOD":"95.593","APOAPSIS":"548.976","RCS_SIZE":"LARGE","DECAY_DATE":null,"CLASSIFICATION_TYPE":"U","OBJECT_TYPE":"PAYLOAD","SITE":"AFETR","INCLINATION":"53.0529","NORAD_CAT_ID":"47916","MEAN_ANOMALY":"284.4850","COUNTRY_CODE":"US","EPHEMERIS_TYPE":"0","SEMIMAJOR_AXIS":"6925.388","OBJECT_NAME":"STARLINK-2378","FILE":"3108751","OBJECT_ID":"2021-021BJ","MEAN_MOTION":"15.06387072","EPOCH":"2021-09-04T16:27:36.077472","TLE_LINE1":"1 47916U 21021BJ  21247.68583423  .00000639  00000-0  61805-4 0  9990","GP_ID":"184105223","MEAN_MOTION_DDOT":"0.0000000000000","ELEMENT_SET_NO":"999","TIME_SYSTEM":"UTC","CENTER_NAME":"EARTH","ARG_OF_PERICENTER":"75.6415","REF_FRAME":"TEME","LAUNCH_DATE":"2021-03-14","PERIAPSIS":"545.530","MEAN_MOTION_DOT":"0.00000639","ECCENTRICITY":"0.00024880","BSTAR":"0.00006180500000","RA_OF_ASC_NODE":"95.3041","TLE_LINE2":"2 47916  53.0529  95.3041 0002488  75.6415 284.4850 15.06387072 28072","MEAN_ELEMENT_THEORY":"SGP4","REV_AT_EPOCH":"2807"},{"MEAN_ANOMALY":"272.8585","SEMIMAJOR_AXIS":"6925.389","OBJECT_NAME":"STARLINK-2397","EPHEMERIS_TYPE":"0","COUNTRY_CODE":"US","NORAD_CAT_ID":"47917","OBJECT_TYPE":"PAYLOAD","SITE":"AFETR","INCLINATION":"53.0565","DECAY_DATE":null,"RCS_SIZE":"LARGE","CLASSIFICATION_TYPE":"U","PERIOD":"95.593","APOAPSIS":"548.437","MEAN_MOTION_DOT":"-0.00003151","ECCENTRICITY":"0.00017080","PERIAPSIS":"546.072","LAUNCH_DATE":"2021-03-14","TLE_LINE2":"2 47917  53.0565 105.2672 0001708  87.2600 272.8585 15.06386682 27928","RA_OF_ASC_NODE":"105.2672","REV_AT_EPOCH":"2792","MEAN_ELEMENT_THEORY":"SGP4","BSTAR":"-0.00019280000000","TIME_SYSTEM":"UTC","REF_FRAME":"TEME","CENTER_NAME":"EARTH","ARG_OF_PERICENTER":"87.2600","GP_ID":"184105475","MEAN_MOTION_DDOT":"0.0000000000000","TLE_LINE1":"1 47917U 21021BK  21247.69229353 -.00003151  00000-0 -19280-3 0  9994","ELEMENT_SET_NO":"999","OBJECT_ID":"2021-021BK","EPOCH":"2021-09-04T16:36:54.160992","MEAN_MOTION":"15.06386682","FILE":"3108751"},{"OBJECT_ID":"2021-021BL","MEAN_MOTION":"15.06395781","EPOCH":"2021-09-04T16:47:29.673600","FILE":"3108751","MEAN_MOTION_DDOT":"0.0000000000000","GP_ID":"184106225","TLE_LINE1":"1 47918U 21021BL  21247.69964900 -.00000554  00000-0 -18275-4 0  9997","ELEMENT_SET_NO":"999","TIME_SYSTEM":"UTC","REF_FRAME":"TEME","CENTER_NAME":"EARTH","ARG_OF_PERICENTER":"86.3516","MEAN_MOTION_DOT":"-0.00000554","ECCENTRICITY":"0.00017690","LAUNCH_DATE":"2021-03-14","PERIAPSIS":"546.001","TLE_LINE2":"2 47918  53.0557 105.2313 0001769  86.3516 273.7675 15.06395781 27958","RA_OF_ASC_NODE":"105.2313","MEAN_ELEMENT_THEORY":"SGP4","REV_AT_EPOCH":"2795","BSTAR":"-0.00001827500000","DECAY_DATE":null,"RCS_SIZE":"LARGE","CLASSIFICATION_TYPE":"U","PERIOD":"95.592","APOAPSIS":"548.452","OBJECT_TYPE":"PAYLOAD","SITE":"AFETR","INCLINATION":"53.0557","NORAD_CAT_ID":"47918","MEAN_ANOMALY":"273.7675","SEMIMAJOR_AXIS":"6925.361","OBJECT_NAME":"STARLINK-2398","EPHEMERIS_TYPE":"0","COUNTRY_CODE":"US"},{"OBJECT_TYPE":"PAYLOAD","SITE":"AFETR","INCLINATION":"53.0540","PERIOD":"95.592","APOAPSIS":"548.716","RCS_SIZE":"LARGE","DECAY_DATE":null,"CLASSIFICATION_TYPE":"U","MEAN_ANOMALY":"284.1963","COUNTRY_CODE":"US","EPHEMERIS_TYPE":"0","SEMIMAJOR_AXIS":"6925.365","OBJECT_NAME":"STARLINK-2405","NORAD_CAT_ID":"47919","TLE_LINE1":"1 47919U 21021BM  21247.35225571 -.00000197  00000-0  56963-5 0  9994","MEAN_MOTION_DDOT":"0.0000000000000","GP_ID":"184079272","ELEMENT_SET_NO":"999","FILE":"3108585","OBJECT_ID":"2021-021BM","EPOCH":"2021-09-04T08:27:14.893344","MEAN_MOTION":"15.06394741","LAUNCH_DATE":"2021-03-14","PERIAPSIS":"545.743","MEAN_MOTION_DOT":"-0.00000197","ECCENTRICITY":"0.00021460","BSTAR":"0.00000569630000","TLE_LINE2":"2 47919  53.0540 116.7956 0002146  75.9265 284.1963 15.06394741 27744","RA_OF_ASC_NODE":"116.7956","MEAN_ELEMENT_THEORY":"SGP4","REV_AT_EPOCH":"2774","TIME_SYSTEM":"UTC","CENTER_NAME":"EARTH","ARG_OF_PERICENTER":"75.9265","REF_FRAME":"TEME"},{"MEAN_MOTION":"15.06394233","EPOCH":"2021-09-04T16:37:32.697120","OBJECT_ID":"2021-024A","FILE":"3108751","ELEMENT_SET_NO":"999","GP_ID":"184105230","MEAN_MOTION_DDOT":"0.0000000000000","TLE_LINE1":"1 47977U 21024A   21247.69273955  .00000408  00000-0  46307-4 0  9991","REF_FRAME":"TEME","ARG_OF_PERICENTER":"71.7057","CENTER_NAME":"EARTH","TIME_SYSTEM":"UTC","MEAN_ELEMENT_THEORY":"SGP4","REV_AT_EPOCH":"2646","TLE_LINE2":"2 47977  53.0539 160.2617 0001949  71.7057 288.4144 15.06394233 26469","RA_OF_ASC_NODE":"160.2617","BSTAR":"0.00004630700000","MEAN_MOTION_DOT":"0.00000408","ECCENTRICITY":"0.00019490","PERIAPSIS":"545.881","LAUNCH_DATE":"2021-03-24","CLASSIFICATION_TYPE":"U","DECAY_DATE":null,"RCS_SIZE":"LARGE","APOAPSIS":"548.581","PERIOD":"95.593","INCLINATION":"53.0539","SITE":"AFETR","OBJECT_TYPE":"PAYLOAD","NORAD_CAT_ID":"47977","OBJECT_NAME":"STARLINK-2087","SEMIMAJOR_AXIS":"6925.366","EPHEMERIS_TYPE":"0","COUNTRY_CODE":"US","MEAN_ANOMALY":"288.4144"},{"REF_FRAME":"TEME","CENTER_NAME":"EARTH","ARG_OF_PERICENTER":"69.0435","TIME_SYSTEM":"UTC","RA_OF_ASC_NODE":"171.0804","TLE_LINE2":"2 47978  53.0578 171.0804 0001702  69.0435 291.0736 15.06398025 26299","REV_AT_EPOCH":"2629","MEAN_ELEMENT_THEORY":"SGP4","BSTAR":"0.00009162700000","MEAN_MOTION_DOT":"0.00001083","ECCENTRICITY":"0.00017020","PERIAPSIS":"546.041","LAUNCH_DATE":"2021-03-24","OBJECT_ID":"2021-024B","EPOCH":"2021-09-04T12:21:26.083872","MEAN_MOTION":"15.06398025","FILE":"3108751","ELEMENT_SET_NO":"999","MEAN_MOTION_DDOT":"0.0000000000000","GP_ID":"184105482","TLE_LINE1":"1 47978U 21024B   21247.51488523  .00001083  00000-0  91627-4 0  9997","NORAD_CAT_ID":"47978","SEMIMAJOR_AXIS":"6925.355","OBJECT_NAME":"STARLINK-1647","EPHEMERIS_TYPE":"0","COUNTRY_CODE":"US","MEAN_ANOMALY":"291.0736","DECAY_DATE":null,"RCS_SIZE":"LARGE","CLASSIFICATION_TYPE":"U","PERIOD":"95.592","APOAPSIS":"548.398","SITE":"AFETR","INCLINATION":"53.0578","OBJECT_TYPE":"PAYLOAD"},{"MEAN_ELEMENT_THEORY":"SGP4","REV_AT_EPOCH":"2716","TLE_LINE2":"2 47979  53.0458 108.9822 0000134 108.1861 251.9165 15.57814403 27169","RA_OF_ASC_NODE":"108.9822","BSTAR":"-0.00582680000000","ECCENTRICITY":"0.00001340","MEAN_MOTION_DOT":"-0.00419594","PERIAPSIS":"393.895","LAUNCH_DATE":"2021-03-24","REF_FRAME":"TEME","ARG_OF_PERICENTER":"108.1861","CENTER_NAME":"EARTH","TIME_SYSTEM":"UTC","ELEMENT_SET_NO":"999","GP_ID":"184106232","MEAN_MOTION_DDOT":"0.0000000000000","TLE_LINE1":"1 47979U 21024C   21247.56896669 -.00419594  00000-0 -58268-2 0  9991","MEAN_MOTION":"15.57814403","EPOCH":"2021-09-04T13:39:18.722016","OBJECT_ID":"2021-024C","FILE":"3108751","OBJECT_NAME":"STARLINK-2325","SEMIMAJOR_AXIS":"6772.121","EPHEMERIS_TYPE":"0","COUNTRY_CODE":"US","MEAN_ANOMALY":"251.9165","NORAD_CAT_ID":"47979","INCLINATION":"53.0458","SITE":"AFETR","OBJECT_TYPE":"PAYLOAD","CLASSIFICATION_TYPE":"U","DECAY_DATE":null,"RCS_SIZE":"LARGE","APOAPSIS":"394.077","PERIOD":"92.437"}];
